NORAD_CAT_ID,OBJECT_NAME,OBJECT_TYPE,EPOCH,MEAN_MOTION,ECCENTRICITY,INCLINATION,RA_OF_ASC_NODE,ARG_OF_PERICENTER,MEAN_ANOMALY,BSTAR,MEAN_MOTION_DOT,MEAN_MOTION_DDOT,TLE_LINE0,TLE_LINE1,TLE_LINE2,SEMIMAJOR_AXIS,PERIOD,APOGEE,PERIGEE,DECAYED
49159.0,STARLINK-3056,PAYLOAD,2024-01-06 18:44:17,14.98334323,0.000255,70.0007,133.6617,256.5799,103.5076,3.5908e-05,3.36e-06,0.0,0 STARLINK-3056,1 49159U 21082AF  24006.78075973  .00000336  00000-0  35908-4 0  9990,2 49159  70.0007 133.6617 0002550 256.5799 103.5076 14.98334323128302,6950.18,96.107,573.817,570.272,0.0
49159.0,STARLINK-3056,PAYLOAD,2024-01-07 13:57:54,14.98335662,0.000243,70.0005,131.6423,253.5657,106.5235,-4.6295e-08,-9.3e-07,0.0,0 STARLINK-3056,1 49159U 21082AF  24007.58187889 -.00000093  00000-0 -46295-7 0  9995,2 49159  70.0005 131.6423 0002430 253.5657 106.5235 14.98335662128420,6950.175,96.107,573.729,570.351,0.0
49159.0,STARLINK-3056,PAYLOAD,2024-01-07 17:10:10,14.98346882,0.0002488,70.0006,131.3057,258.1853,101.9027,-0.00019899,-2.467e-05,0.0,0 STARLINK-3056,1 49159U 21082AF  24007.71539503 -.00002467  00000-0 -19899-3 0  9997,2 49159  70.0006 131.3057 0002488 258.1853 101.9027 14.98346882128449,6950.141,96.106,573.735,570.276,0.0
49159.0,STARLINK-3056,PAYLOAD,2024-01-08 10:47:39,14.98330681,0.000297,70.0002,129.4542,266.7349,93.347,0.00011182,1.241e-05,0.0,0 STARLINK-3056,1 49159U 21082AF  24008.44975710  .00001241  00000-0  11182-3 0  9996,2 49159  70.0002 129.4542 0002970 266.7349  93.3470 14.98330681128551,6950.191,96.107,574.12,569.992,0.0
49159.0,STARLINK-3056,PAYLOAD,2024-01-08 13:59:55,14.98330172,0.0003041,70.0004,129.1176,265.7808,94.3004,9.87e-05,1.085e-05,0.0,0 STARLINK-3056,1 49159U 21082AF  24008.58327829  .00001085  00000-0  98700-4 0  9991,2 49159  70.0004 129.1176 0003041 265.7808  94.3004 14.98330172128573,6950.192,96.107,574.171,569.944,0.0
49159.0,STARLINK-3056,PAYLOAD,2024-01-08 17:12:11,14.98332914,0.0003004,70.0006,128.7811,266.7776,93.304,0.00010708,1.185e-05,0.0,0 STARLINK-3056,1 49159U 21082AF  24008.71679622  .00001185  00000-0  10708-3 0  9999,2 49159  70.0006 128.7811 0003004 266.7776  93.3040 14.98332914128597,6950.184,96.107,574.137,569.961,0.0
49159.0,STARLINK-3056,PAYLOAD,2024-01-09 10:49:39,14.98330947,0.0002975,70.0006,126.9301,266.1672,93.9147,4.0058e-05,3.85e-06,0.0,0 STARLINK-3056,1 49159U 21082AF  24009.45115739  .00000385  00000-0  40058-4 0  9998,2 49159  70.0006 126.9301 0002975 266.1672  93.9147 14.98330947128707,6950.19,96.107,574.123,569.987,0.0
49159.0,STARLINK-3056,PAYLOAD,2024-01-09 14:01:55,14.9834697,0.0002777,70.001,126.5942,259.7351,100.3495,-0.00023659,-2.916e-05,0.0,0 STARLINK-3056,1 49159U 21082AF  24009.58467319 -.00002916  00000-0 -23659-3 0  9997,2 49159  70.0010 126.5942 0002777 259.7351 100.3495 14.98346970128725,6950.14,96.106,573.935,570.075,0.0
49159.0,STARLINK-3056,PAYLOAD,2024-01-09 17:14:12,14.98332689,0.0002931,70.0006,126.2569,264.9208,95.1616,7.1164e-05,7.56e-06,0.0,0 STARLINK-3056,1 49159U 21082AF  24009.71819536  .00000756  00000-0  71164-4 0  9997,2 49159  70.0006 126.2569 0002931 264.9208  95.1616 14.98332689128743,6950.185,96.107,574.087,570.012,0.0
49159.0,STARLINK-3056,PAYLOAD,2024-01-10 10:51:40,14.98330066,0.0002719,70.001,124.4059,257.6776,102.4079,3.7002e-05,3.49e-06,0.0,0 STARLINK-3056,1 49159U 21082AF  24010.45255707  .00000349  00000-0  37002-4 0  9995,2 49159  70.0010 124.4059 0002719 257.6776 102.4079 14.98330066128859,6950.193,96.107,573.947,570.168,0.0
49159.0,STARLINK-3056,PAYLOAD,2024-01-11 12:29:49,14.98328635,0.0002812,70.0007,121.7114,264.1992,95.8846,5.6816e-05,5.85e-06,0.0,0 STARLINK-3056,1 49159U 21082AF  24011.52071728  .00000585  00000-0  56816-4 0  9999,2 49159  70.0007 121.7114 0002812 264.1992  95.8846 14.98328635129019,6950.197,96.107,574.017,570.108,0.0
49159.0,STARLINK-3056,PAYLOAD,2024-01-11 14:05:57,14.98329395,0.0002744,70.0006,121.5429,261.9032,98.1816,7.2407e-05,7.71e-06,0.0,0 STARLINK-3056,1 49159U 21082AF  24011.58747657  .00000771  00000-0  72407-4 0  9997,2 49159  70.0006 121.5429 0002744 261.9032  98.1816 14.98329395129027,6950.195,96.107,573.967,570.153,0.0
49159.0,STARLINK-3056,PAYLOAD,2024-01-11 17:18:13,14.98333093,0.0002775,70.0007,121.2068,263.8107,96.2736,9.287e-05,1.015e-05,0.0,0 STARLINK-3056,1 49159U 21082AF  24011.72099444  .00001015  00000-0  92870-4 0  9995,2 49159  70.0007 121.2068 0002775 263.8107  96.2736 14.98333093129044,6950.183,96.107,573.977,570.12,0.0
49159.0,STARLINK-3056,PAYLOAD,2024-01-12 10:55:42,14.9837326,0.0002422,70.001,119.3549,262.9394,97.1489,-0.00070178,-8.465e-05,0.0,0 STARLINK-3056,1 49159U 21082AF  24012.45534904 -.00008465  00000-0 -70178-3 0  9995,2 49159  70.0010 119.3549 0002422 262.9394  97.1489 14.98373260129154,6950.059,96.104,573.607,570.241,0.0
49159.0,STARLINK-3056,PAYLOAD,2024-01-12 14:07:58,14.98345314,0.0002202,70.0008,119.0179,258.5532,101.538,-0.0001826,-2.272e-05,0.0,0 STARLINK-3056,1 49159U 21082AF  24012.58887242 -.00002272  00000-0 -18260-3 0  9999,2 49159  70.0008 119.0179 0002202 258.5532 101.5380 14.98345314129179,6950.146,96.106,573.541,570.48,0.0
49159.0,STARLINK-3056,PAYLOAD,2024-01-12 17:20:14,14.98332832,0.0002563,70.0012,118.6822,265.4441,94.6426,9.3331e-05,1.021e-05,0.0,0 STARLINK-3056,1 49159U 21082AF  24012.72239394  .00001021  00000-0  93331-4 0  9996,2 49159  70.0012 118.6822 0002563 265.4441  94.6426 14.98332832129196,6950.184,96.107,573.83,570.268,0.0
49159.0,STARLINK-3056,PAYLOAD,2024-01-13 10:57:43,14.9832295,0.000259,70.0013,116.8315,273.3559,86.7303,0.00016444,1.869e-05,0.0,0 STARLINK-3056,1 49159U 21082AF  24013.45675798  .00001869  00000-0  16444-3 0  9998,2 49159  70.0013 116.8315 0002590 273.3559  86.7303 14.98322950129301,6950.215,96.107,573.88,570.28,0.0
49159.0,STARLINK-3056,PAYLOAD,2024-01-13 14:09:59,14.98325577,0.0002193,70.0009,116.4944,257.5312,102.5602,0.00012138,1.355e-05,0.0,0 STARLINK-3056,1 49159U 21082AF  24013.59027768  .00001355  00000-0  12138-3 0  9997,2 49159  70.0009 116.4944 0002193 257.5312 102.5602 14.98325577129329,6950.207,96.107,573.596,570.547,0.0
49159.0,STARLINK-3056,PAYLOAD,2024-01-14 10:59:44,14.98314656,0.0002596,70.0009,114.3064,260.999,99.0876,0.00028622,3.322e-05,0.0,0 STARLINK-3056,1 49159U 21082AF  24014.45815937  .00003322  00000-0  28622-3 0  9997,2 49159  70.0009 114.3064 0002596 260.9990  99.0876 14.98314656129459,6950.24,96.108,573.91,570.301,0.0
49159.0,STARLINK-3056,PAYLOAD,2024-01-14 14:12:00,14.98330476,0.0002641,70.0007,113.9693,261.0744,99.0116,3.2671e-05,2.97e-06,0.0,0 STARLINK-3056,1 49159U 21082AF  24014.59167612  .00000297  00000-0  32671-4 0  9990,2 49159  70.0007 113.9693 0002641 261.0744  99.0116 14.98330476129477,6950.191,96.107,573.892,570.221,0.0
49159.0,STARLINK-3056,PAYLOAD,2024-01-14 15:48:08,14.98331918,0.0002595,70.0009,113.8017,262.1301,97.9564,3.5562e-05,3.31e-06,0.0,0 STARLINK-3056,1 49159U 21082AF  24014.65843517  .00000331  00000-0  35562-4 0  9993,2 49159  70.0009 113.8017 0002595 262.1301  97.9564 14.98331918129484,6950.187,96.107,573.856,570.248,0.0
49159.0,STARLINK-3056,PAYLOAD,2024-01-15 14:14:01,14.98336249,0.0002712,70.0007,111.4443,257.5321,102.5535,0.00012081,1.349e-05,0.0,0 STARLINK-3056,1 49159U 21082AF  24015.59306790  .00001349  00000-0  12081-3 0  9994,2 49159  70.0007 111.4443 0002712 257.5321 102.5535 14.98336249129629,6950.174,96.107,573.923,570.154,0.0
49159.0,STARLINK-3056,PAYLOAD,2024-01-15 15:50:08,14.9833795,0.0002693,70.0008,111.2763,256.9071,103.1787,0.00014086,1.588e-05,0.0,0 STARLINK-3056,1 49159U 21082AF  24015.65982614  .00001588  00000-0  14086-3 0  9998,2 49159  70.0008 111.2763 0002693 256.9071 103.1787 14.98337950129633,6950.168,96.106,573.905,570.162,0.0
49159.0,STARLINK-3056,PAYLOAD,2024-01-16 12:39:54,14.98324612,0.000285,70.0015,109.0911,244.2074,115.8791,-1.8049e-05,-3.08e-06,0.0,0 STARLINK-3056,1 49159U 21082AF  24016.52771910 -.00000308  00000-0 -18049-4 0  9995,2 49159  70.0015 109.0911 0002850 244.2074 115.8791 14.98324612129769,6950.21,96.107,574.055,570.094,0.0
49159.0,STARLINK-3056,PAYLOAD,2024-01-16 14:16:02,14.98325133,0.0002857,70.0015,108.923,245.6668,114.4193,-1.7446e-05,-3.01e-06,0.0,0 STARLINK-3056,1 49159U 21082AF  24016.59447895 -.00000301  00000-0 -17446-4 0  9997,2 49159  70.0015 108.9230 0002857 245.6668 114.4193 14.98325133129773,6950.208,96.107,574.059,570.087,0.0
49159.0,STARLINK-3056,PAYLOAD,2024-01-16 15:52:10,14.98326908,0.0002934,70.0006,108.7522,257.0881,102.9951,2.1611e-06,-6.7e-07,0.0,0 STARLINK-3056,1 49159U 21082AF  24016.66123796 -.00000067  00000-0  21611-5 0  9994,2 49159  70.0006 108.7522 0002934 257.0881 102.9951 14.98326908129781,6950.202,96.107,574.107,570.028,0.0
49159.0,STARLINK-3056,PAYLOAD,2024-01-17 11:05:47,14.98333643,0.0002929,70.0006,106.7328,255.4847,104.5987,-9.0778e-06,-2.01e-06,0.0,0 STARLINK-3056,1 49159U 21082AF  24017.46235461 -.00000201  00000-0 -90778-5 0  9997,2 49159  70.0006 106.7328 0002929 255.4847 104.5987 14.98333643129906,6950.182,96.107,574.082,570.011,0.0
49159.0,STARLINK-3056,PAYLOAD,2024-01-17 14:18:03,14.98336631,0.0002894,70.0007,106.3965,255.187,104.8969,3.5088e-05,3.26e-06,0.0,0 STARLINK-3056,1 49159U 21082AF  24017.59587172  .00000326  00000-0  35088-4 0  9998,2 49159  70.0007 106.3965 0002894 255.1870 104.8969 14.98336631129929,6950.172,96.107,574.049,570.026,0.0
49159.0,STARLINK-3056,PAYLOAD,2024-01-17 15:54:11,14.98338502,0.0003065,70.0003,106.2275,260.7712,99.31,2.6069e-05,2.18e-06,0.0,0 STARLINK-3056,1 49159U 21082AF  24017.66263068  .00000218  00000-0  26069-4 0  9990,2 49159  70.0003 106.2275 0003065 260.7712  99.3100 14.98338502129931,6950.167,96.106,574.162,569.901,0.0
49159.0,STARLINK-3056,PAYLOAD,2024-01-18 11:07:48,14.98329948,0.0002823,70.001,104.2083,255.183,104.9017,0.00014645,1.655e-05,0.0,0 STARLINK-3056,1 49159U 21082AF  24018.46375500  .00001655  00000-0  14645-3 0  9996,2 49159  70.0010 104.2083 0002823 255.1830 104.9017 14.98329948130053,6950.193,96.107,574.02,570.096,0.0
